{"type": "FeatureCollection", "features": [ {"type": "Feature", "properties": {"norad_id": 66613, "name": "STARLINK-36037", "group": "last-30-days", "lat": -11.63192880992813, "lon": -124.87045194569824, "alt_km": 340.71842515818025, "timestamp": "2025-12-03T10:52:56.223386+00:00", "meta": {"OBJECT_NAME": "STARLINK-36037", "OBJECT_ID": "2025-270AB", "EPOCH": "2025-12-03T04:00:01.998720", "MEAN_MOTION": 15.77766489, "ECCENTRICITY": 0.0001514, "INCLINATION": 42.9992, "RA_OF_ASC_NODE": 249.638, "ARG_OF_PERICENTER": 274.5801, "MEAN_ANOMALY": 238.2124, "EPHEMERIS_TYPE": 0, "CLASSIFICATION_TYPE": "U", "NORAD_CAT_ID": 66613, "ELEMENT_SET_NO": 999, "REV_AT_EPOCH": 286, "BSTAR": -0.011769, "MEAN_MOTION_DOT": -0.01792135, "MEAN_MOTION_DDOT": 0}, "tle": {"line1": "1 66613U 25270AB  25337.16668980 -.01792135  00000+0 -11769-1 0  9996", "line2": "2 66613  42.9992 249.6380 0001514 274.5801 238.2124 15.77766489  2867"}}, "geometry": {"type": "Point", "coordinates": [-124.87045194569824, -11.63192880992813]}}, {"type": "Feature", "properties": {"norad_id": 66614, "name": "STARLINK-36040", "group": "last-30-days", "lat": -9.039200345510428, "lon": -121.94779519999018, "alt_km": 340.66062698139467, "timestamp": "2025-12-03T10:52:56.223398+00:00", "meta": {"OBJECT_NAME": "STARLINK-36040", "OBJECT_ID": "2025-270AC", "EPOCH": "2025-12-03T04:00:01.998720", "MEAN_MOTION": 15.77752956, "ECCENTRICITY": 0.0001402, "INCLINATION": 42.999, "RA_OF_ASC_NODE": 249.628, "ARG_OF_PERICENTER": 271.3567, "MEAN_ANOMALY": 245.3336, "EPHEMERIS_TYPE": 0, "CLASSIFICATION_TYPE": "U", "NORAD_CAT_ID": 66614, "ELEMENT_SET_NO": 999, "REV_AT_EPOCH": 270, "BSTAR": -0.011849, "MEAN_MOTION_DOT": -0.01801758, "MEAN_MOTION_DDOT": 0}, "tle": {"line1": "1 66614U 25270AC  25337.16668980 -.01801758  00000+0 -11849-1 0  9998", "line2": "2 66614  42.9990 249.6280 0001402 271.3567 245.3336 15.77752956  2706"}}, "geometry": {"type": "Point", "coordinates": [-121.94779519999018, -9.039200345510428]}}, {"type": "Feature", "properties": {"norad_id": 66615, "name": "STARLINK-35988", "group": "last-30-days", "lat": -10.320283760958418, "lon": -123.38219344463597, "alt_km": 340.85362389798684, "timestamp": "2025-12-03T10:52:56.223408+00:00", "meta": {"OBJECT_NAME": "STARLINK-35988", "OBJECT_ID": "2025-270AD", "EPOCH": "2025-12-03T04:00:01.998720", "MEAN_MOTION": 15.77732561, "ECCENTRICITY": 0.0001174, "INCLINATION": 42.9991, "RA_OF_ASC_NODE": 249.6328, "ARG_OF_PERICENTER": 271.0285, "MEAN_ANOMALY": 243.7675, "EPHEMERIS_TYPE": 0, "CLASSIFICATION_TYPE": "U", "NORAD_CAT_ID": 66615, "ELEMENT_SET_NO": 999, "REV_AT_EPOCH": 270, "BSTAR": -0.011737, "MEAN_MOTION_DOT": -0.01785154, "MEAN_MOTION_DDOT": 0}, "tle": {"line1": "1 66615U 25270AD  25337.16668980 -.01785154  00000+0 -11737-1 0  9996", "line2": "2 66615  42.9991 249.6328 0001174 271.0285 243.7675 15.77732561  2709"}}, "geometry": {"type": "Point", "coordinates": [-123.38219344463597, -10.320283760958418]}}, {"type": "Feature", "properties": {"norad_id": 66616, "name": "STARLINK-35391", "group": "last-30-days", "lat": -7.722061340382885, "lon": -120.48958518491557, "alt_km": 340.60704550578157, "timestamp": "2025-12-03T10:52:56.223418+00:00", "meta": {"OBJECT_NAME": "STARLINK-35391", "OBJECT_ID": "2025-270AE", "EPOCH": "2025-12-03T04:00:01.998720", "MEAN_MOTION": 15.77739263, "ECCENTRICITY": 0.000129, "INCLINATION": 42.9991, "RA_OF_ASC_NODE": 249.6234, "ARG_OF_PERICENTER": 272.2921, "MEAN_ANOMALY": 246.374, "EPHEMERIS_TYPE": 0, "CLASSIFICATION_TYPE": "U", "NORAD_CAT_ID": 66616, "ELEMENT_SET_NO": 999, "REV_AT_EPOCH": 297, "BSTAR": -0.011922, "MEAN_MOTION_DOT": -0.01810333, "MEAN_MOTION_DDOT": 0}, "tle": {"line1": "1 66616U 25270AE  25337.16668980 -.01810333  00000+0 -11922-1 0  9991", "line2": "2 66616  42.9991 249.6234 0001290 272.2921 246.3740 15.77739263  2972"}}, "geometry": {"type": "Point", "coordinates": [-120.48958518491557, -7.722061340382885]}}, {"type": "Feature", "properties": {"norad_id": 66645, "name": "SHENZHOU-22", "group": "last-30-days", "lat": 13.978541028549559, "lon": -123.31525166554724, "alt_km": 395.934852123416, "timestamp": "2025-12-03T10:52:56.223428+00:00", "meta": {"OBJECT_NAME": "SHENZHOU-22", "OBJECT_ID": "2025-272A", "EPOCH": "2025-12-02T14:12:45.225504", "MEAN_MOTION": 15.58538929, "ECCENTRICITY": 0.00102296, "INCLINATION": 41.4674, "RA_OF_ASC_NODE": 78.2835, "ARG_OF_PERICENTER": 314.561, "MEAN_ANOMALY": 45.4392, "EPHEMERIS_TYPE": 0, "CLASSIFICATION_TYPE": "U", "NORAD_CAT_ID": 66645, "ELEMENT_SET_NO": 999, "REV_AT_EPOCH": 26245, "BSTAR": 0.00035376094, "MEAN_MOTION_DOT": 0.00027659, "MEAN_MOTION_DDOT": 0}, "tle": {"line1": "1 66645U 25272A   25336.59219011  .00027659  00000+0  35376-3 0  9997", "line2": "2 66645  41.4674  78.2835 0010229 314.5610  45.4392 15.58538929262453"}}, "geometry": {"type": "Point", "coordinates": [-123.31525166554724, 13.978541028549559]}}, {"type": "Feature", "properties": {"norad_id": 66646, "name": "CZ-2F R/B", "group": "last-30-days", "lat": 41.03814187036535, "lon": 150.09363069336553, "alt_km": 262.14027339364293, "timestamp": "2025-12-03T10:52:56.223453+00:00", "meta": {"OBJECT_NAME": "CZ-2F R/B", "OBJECT_ID": "2025-272B", "EPOCH": "2025-11-26T11:17:54.506400", "MEAN_MOTION": 16.01945612, "ECCENTRICITY": 0.01210796, "INCLINATION": 41.4431, "RA_OF_ASC_NODE": 114.9009, "ARG_OF_PERICENTER": 133.7676, "MEAN_ANOMALY": 227.3272, "EPHEMERIS_TYPE": 0, "CLASSIFICATION_TYPE": "U", "NORAD_CAT_ID": 66646, "ELEMENT_SET_NO": 999, "REV_AT_EPOCH": 21, "BSTAR": 0.00029319366, "MEAN_MOTION_DOT": 0.00449059, "MEAN_MOTION_DDOT": 7.567612e-06}, "tle": {"line1": "1 66646U 25272B   25330.47076975  .00449059  75676-5  29319-3 0  9998", "line2": "2 66646  41.4431 114.9009 0121079 133.7676 227.3272 16.01945612   217"}}, "geometry": {"type": "Point", "coordinates": [150.09363069336553, 41.03814187036535]}}, {"type": "Feature", "properties": {"norad_id": 66647, "name": "COSMOS 2597 (RODNIK-S 22)", "group": "last-30-days", "lat": 9.714761310910799, "lon": -66.49108793721543, "alt_km": 1496.3870947633322, "timestamp": "2025-12-03T10:52:56.223467+00:00", "meta": {"OBJECT_NAME": "COSMOS 2597 (RODNIK-S 22)", "OBJECT_ID": "2025-273A", "EPOCH": "2025-12-03T05:01:46.460064", "MEAN_MOTION": 12.41951057, "ECCENTRICITY": 0.0008144, "INCLINATION": 82.4981, "RA_OF_ASC_NODE": 292.3678, "ARG_OF_PERICENTER": 311.4814, "MEAN_ANOMALY": 48.5565, "EPHEMERIS_TYPE": 0, "CLASSIFICATION_TYPE": "U", "NORAD_CAT_ID": 66647, "ELEMENT_SET_NO": 999, "REV_AT_EPOCH": 95, "BSTAR": -1.0735e-05, "MEAN_MOTION_DOT": 8e-08, "MEAN_MOTION_DDOT": 0}, "tle": {"line1": "1 66647U 25273A   25337.20956551  .00000008  00000+0 -10735-4 0  9999", "line2": "2 66647  82.4981 292.3678 0008144 311.4814  48.5565 12.41951057   951"}}, "geometry": {"type": "Point", "coordinates": [-66.49108793721543, 9.714761310910799]}}, {"type": "Feature", "properties": {"norad_id": 66648, "name": "COSMOS 2598 (RODNIK-S 23)", "group": "last-30-days", "lat": 18.131508360324204, "lon": -65.30631657378282, "alt_km": 1495.9079174640965, "timestamp": "2025-12-03T10:52:56.223477+00:00", "meta": {"OBJECT_NAME": "COSMOS 2598 (RODNIK-S 23)", "OBJECT_ID": "2025-273B", "EPOCH": "2025-12-03T04:59:07.514304", "MEAN_MOTION": 12.42253006, "ECCENTRICITY": 0.000823, "INCLINATION": 82.5022, "RA_OF_ASC_NODE": 292.3748, "ARG_OF_PERICENTER": 300.0854, "MEAN_ANOMALY": 59.9409, "EPHEMERIS_TYPE": 0, "CLASSIFICATION_TYPE": "U", "NORAD_CAT_ID": 66648, "ELEMENT_SET_NO": 999, "REV_AT_EPOCH": 95, "BSTAR": -0.00010762, "MEAN_MOTION_DOT": -5e-08, "MEAN_MOTION_DDOT": 0}, "tle": {"line1": "1 66648U 25273B   25337.20772586 -.00000005  00000+0 -10762-3 0  9991", "line2": "2 66648  82.5022 292.3748 0008230 300.0854  59.9409 12.42253006   954"}}, "geometry": {"type": "Point", "coordinates": [-65.30631657378282, 18.131508360324204]}}, {"type": "Feature", "properties": {"norad_id": 66649, "name": "COSMOS 2599 (RODNIK-S 24)", "group": "last-30-days", "lat": 1.9266260793696894, "lon": -67.51887129424274, "alt_km": 1496.970357370902, "timestamp": "2025-12-03T10:52:56.223487+00:00", "meta": {"OBJECT_NAME": "COSMOS 2599 (RODNIK-S 24)", "OBJECT_ID": "2025-273C", "EPOCH": "2025-12-03T05:04:13.465344", "MEAN_MOTION": 12.41671835, "ECCENTRICITY": 0.000836, "INCLINATION": 82.5023, "RA_OF_ASC_NODE": 292.3775, "ARG_OF_PERICENTER": 321.8903, "MEAN_ANOMALY": 38.1584, "EPHEMERIS_TYPE": 0, "CLASSIFICATION_TYPE": "U", "NORAD_CAT_ID": 66649, "ELEMENT_SET_NO": 999, "REV_AT_EPOCH": 95, "BSTAR": -0.00011031, "MEAN_MOTION_DOT": -5e-08, "MEAN_MOTION_DDOT": 0}, "tle": {"line1": "1 66649U 25273C   25337.21126696 -.00000005  00000+0 -11031-3 0  9998", "line2": "2 66649  82.5023 292.3775 0008360 321.8903  38.1584 12.41671835   952"}}, "geometry": {"type": "Point", "coordinates": [-67.51887129424274, 1.9266260793696894]}}, {"type": "Feature", "properties": {"norad_id": 66650, "name": "2025-274A", "group": "last-30-days", "lat": 43.26516116492952, "lon": 92.1650692492793, "alt_km": 595.7512174966341, "timestamp": "2025-12-03T10:52:56.223503+00:00", "meta": {"OBJECT_NAME": "2025-274A", "OBJECT_ID": "2025-274A", "EPOCH": "2025-12-02T18:10:23.414016", "MEAN_MOTION": 14.91604315, "ECCENTRICITY": 0.0010447, "INCLINATION": 97.738, "RA_OF_ASC_NODE": 264.1291, "ARG_OF_PERICENTER": 289.9318, "MEAN_ANOMALY": 70.0775, "EPHEMERIS_TYPE": 0, "CLASSIFICATION_TYPE": "U", "NORAD_CAT_ID": 66650, "ELEMENT_SET_NO": 999, "REV_AT_EPOCH": 91, "BSTAR": 0.00029145, "MEAN_MOTION_DOT": 2.872e-05, "MEAN_MOTION_DDOT": 0}, "tle": {"line1": "1 66650U 25274A   25336.75721544  .00002872  00000+0  29145-3 0  9999", "line2": "2 66650  97.7380 264.1291 0010447 289.9318  70.0775 14.91604315   910"}}, "geometry": {"type": "Point", "coordinates": [92.1650692492793, 43.26516116492952]}}]}